0 COSMOS 2251 DEB
1 34051U 93036JN  13281.75792856  .00005016  00000-0  10375-2 0  9606
2 34051 073.9942 032.9096 0069348 234.2395 246.3279 14.59061267247092
0 COSMOS 2251 DEB
1 34051U 93036JN  13283.11840375  .00006952  00000-0  14344-2 0  9619
2 34051 073.9940 030.3102 0069331 231.4219 192.3385 14.59084304247293
0 COSMOS 2251 DEB
1 34051U 93036JN  13285.46117667  .00005688  00000-0  11745-2 0  9628
2 34051 073.9942 025.8337 0069257 226.5337 258.1851 14.59109201247638
0 COSMOS 2251 DEB
1 34051U 93036JN  13287.72346134  .00007822  00000-0  16113-2 0  9639
2 34051 073.9949 021.5113 0069202 221.8399 261.4293 14.59132851247966
0 COSMOS 2251 DEB
1 34051U 93036JN  13290.04336275  .00007677  00000-0  15805-2 0  9649
2 34051 073.9952 017.0790 0069075 216.9907 207.6209 14.59167969248305
0 COSMOS 2251 DEB
1 34051U 93036JN  13292.38512304  .00006533  00000-0  13453-2 0  9655
2 34051 073.9947 012.6045 0068963 212.1213 268.8733 14.59199716248649
0 COSMOS 2251 DEB
1 34051U 93036JN  13294.43852113  .00007874  00000-0  16193-2 0  9662
2 34051 073.9941 008.6805 0068822 207.7936 255.6324 14.59222787248946
